[{"OBJECT_NAME":"YAM-7","OBJECT_ID":"2024-149AN","EPOCH":"2026-03-09T17:13:55.117920","MEAN_MOTION":15.30304554,"ECCENTRICITY":0.00019733,"INCLINATION":97.3828,"RA_OF_ASC_NODE":149.4631,"ARG_OF_PERICENTER":296.5121,"MEAN_ANOMALY":63.5918,"EPHEMERIS_TYPE":0,"CLASSIFICATION_TYPE":"U","NORAD_CAT_ID":60504,"ELEMENT_SET_NO":999,"REV_AT_EPOCH":8683,"BSTAR":0.00030984439,"MEAN_MOTION_DOT":9.009e-5,"MEAN_MOTION_DDOT":0},{"OBJECT_NAME":"STARLINK-35944","OBJECT_ID":"2025-286D","EPOCH":"2026-03-09T22:53:36.449376","MEAN_MOTION":15.30228299,"ECCENTRICITY":8.733e-5,"INCLINATION":53.1605,"RA_OF_ASC_NODE":357.4787,"ARG_OF_PERICENTER":91.1296,"MEAN_ANOMALY":268.9804,"EPHEMERIS_TYPE":0,"CLASSIFICATION_TYPE":"U","NORAD_CAT_ID":66928,"ELEMENT_SET_NO":999,"REV_AT_EPOCH":1545,"BSTAR":0.0015069631,"MEAN_MOTION_DOT":0.0004458,"MEAN_MOTION_DDOT":0}]
